CARTOSAT-2D             
1 41948U 17008A   26115.86338806  .00002638  00000+0  12830-3 0  9994
2 41948  97.4145 176.1327 0005762  72.5171 287.6693 15.19262469509637
SENTINEL-2B             
1 42063U 17013A   26115.82984148 -.00000004  00000+0  15079-4 0  9996
2 42063  98.5646 191.3461 0001235  89.7799 270.3525 14.30813456477153
CARTOSAT-2E             
1 42767U 17036C   26115.81463277  .00000174  00000+0  11431-4 0  9991
2 42767  97.4313 176.4674 0004314 123.1784 236.9865 15.19300539490196
FORMOSAT-5              
1 42920U 17049A   26115.77825652  .00000127  00000+0  43284-4 0  9999
2 42920  98.2260 192.2499 0010319 240.5331 119.4835 14.50877291459074
SENTINEL-5P             
1 42969U 17064A   26115.83061100  .00000044  00000+0  41702-4 0  9997
2 42969  98.7940  58.3384 0001255  81.7214 278.4104 14.19509761442139
SKYSAT-C11              
1 42987U 17068A   26115.85492080  .00029740  00000+0  44135-3 0  9994
2 42987  97.4284 262.5396 0001516 141.8945 218.2416 15.55171984475101
SKYSAT-C10              
1 42988U 17068B   26115.85223961  .00011469  00000+0  35425-3 0  9996
2 42988  97.4423 252.2510 0001626 110.6604 249.4813 15.33701216474333
SKYSAT-C9               
1 42989U 17068C   26115.83278933  .00014334  00000+0  35782-3 0  9994
2 42989  97.4345 252.6812 0007625 332.2172  27.8666 15.40257330474697
SKYSAT-C8               
1 42990U 17068D   26115.83576131  .00012650  00000+0  36407-3 0  9991
2 42990  97.4439 251.8396 0001170 111.5117 248.6251 15.35910651474270
SKYSAT-C7               
1 42991U 17068E   26115.82739488  .00012378  00000+0  35687-3 0  9993
2 42991  97.4452 252.8175 0004707 298.1347  61.9421 15.35852589474335
SKYSAT-C6               
1 42992U 17068F   26115.82864161  .00011060  00000+0  34371-3 0  9997
2 42992  97.4485 252.9608 0001843   4.1725 355.9532 15.33516917474291
CARTOSAT-2F             
1 43111U 18004A   26115.84638860  .00003938  00000+0  18997-3 0  9990
2 43111  97.4071 176.1307 0002385  95.0023 265.1484 15.19267606459384
GAOFEN-1 02             
1 43259U 18031A   26115.84400669  .00000055  00000+0  15365-4 0  9991
2 43259  98.0558 178.5066 0003378 151.8851 208.2541 14.76440589434970
GAOFEN-1 03             
1 43260U 18031B   26115.82213712  .00000617  00000+0  96191-4 0  9992
2 43260  98.0558 178.3489 0001468 210.9253 149.1870 14.76429874434961
GAOFEN-1 04             
1 43262U 18031D   26115.86556775  .00000477  00000+0  75884-4 0  9997
2 43262  98.0559 178.5767 0000678  93.4793 266.6494 14.76463376434962
SENTINEL-3B             
1 43437U 18039A   26115.80268774  .00000098  00000+0  58728-4 0  9999
2 43437  98.6271 184.0794 0001654  93.3280 266.8090 14.26733476416656
GAOFEN-5 01             
1 43461U 18043A   26115.86012193  .00000384  00000+0  89179-4 0  9991
2 43461  98.4535  86.3608 0000818 200.0629 160.0539 14.60567555424054
